{
  "type": "FeatureCollection",
  "features": [
    {
      "type": "Feature",
      "properties": {
        "norad_id": 28899,
        "name": "INMARSAT 4-F2 (SOUTHPAN/PRN 122)",
        "group": "gnss",
        "lat": 1.517272327605751,
        "lon": -154.61811836679973,
        "alt_km": 35779.25379575474,
        "timestamp": "2025-12-11T22:43:47.509367+00:00",
        "meta_object_name": "INMARSAT 4-F2 (SOUTHPAN/PRN 122)",
        "meta_object_id": "2005-044A",
        "meta_epoch": "2025-12-11T00:54:38.664864",
        "meta_mean_motion": 1.00271138,
        "meta_eccentricity": 0.00030629,
        "meta_inclination": 4.851,
        "meta_ra_of_asc_node": 43.6876,
        "meta_arg_of_pericenter": 219.4824,
        "meta_mean_anomaly": 333.9996,
        "meta_ephemeris_type": 0,
        "meta_classification_type": "U",
        "meta_norad_cat_id": 28899,
        "meta_element_set_no": 999,
        "meta_rev_at_epoch": 7363,
        "meta_bstar": 0,
        "meta_mean_motion_dot": -2.56e-06,
        "meta_mean_motion_ddot": 0,
        "tle_line1": "1 28899U 05044A   25345.03794751 -.00000256  00000+0  00000+0 0  9996",
        "tle_line2": "2 28899   4.8510  43.6876 0003062 219.4824 333.9996  1.00271138 73635"
      },
      "geometry": {
        "type": "Point",
        "coordinates": [
          -154.61811836679973,
          1.517272327605751
        ]
      }
    },
    {
      "type": "Feature",
      "properties": {
        "norad_id": 29486,
        "name": "GPS BIIRM-2 (PRN 31)",
        "group": "gnss",
        "lat": -44.476661891838226,
        "lon": 114.65933431524844,
        "alt_km": 20288.271390442813,
        "timestamp": "2025-12-11T22:43:47.509380+00:00",
        "meta_object_name": "GPS BIIRM-2 (PRN 31)",
        "meta_object_id": "2006-042A",
        "meta_epoch": "2025-12-11T13:05:34.988640",
        "meta_mean_motion": 2.00554186,
        "meta_eccentricity": 0.01073607,
        "meta_inclination": 54.694,
        "meta_ra_of_asc_node": 158.788,
        "meta_arg_of_pericenter": 51.9324,
        "meta_mean_anomaly": 320.1242,
        "meta_ephemeris_type": 0,
        "meta_classification_type": "U",
        "meta_norad_cat_id": 29486,
        "meta_element_set_no": 999,
        "meta_rev_at_epoch": 14063,
        "meta_bstar": 0,
        "meta_mean_motion_dot": 8.8e-07,
        "meta_mean_motion_ddot": 0,
        "tle_line1": "1 29486U 06042A   25345.54554385  .00000088  00000+0  00000+0 0  9993",
        "tle_line2": "2 29486  54.6940 158.7880 0107360  51.9324 320.1242  2.00554186140636"
      },
      "geometry": {
        "type": "Point",
        "coordinates": [
          114.65933431524844,
          -44.476661891838226
        ]
      }
    },
    {
      "type": "Feature",
      "properties": {
        "norad_id": 29601,
        "name": "GPS BIIRM-3 (PRN 12)",
        "group": "gnss",
        "lat": -1.2305799441316176,
        "lon": -139.4254121917613,
        "alt_km": 20175.17326437781,
        "timestamp": "2025-12-11T22:43:47.509392+00:00",
        "meta_object_name": "GPS BIIRM-3 (PRN 12)",
        "meta_object_id": "2006-052A",
        "meta_epoch": "2025-12-10T22:50:57.183936",
        "meta_mean_motion": 2.00573418,
        "meta_eccentricity": 0.00877701,
        "meta_inclination": 54.9709,
        "meta_ra_of_asc_node": 221.4692,
        "meta_arg_of_pericenter": 87.4134,
        "meta_mean_anomaly": 273.6662,
        "meta_ephemeris_type": 0,
        "meta_classification_type": "U",
        "meta_norad_cat_id": 29601,
        "meta_element_set_no": 999,
        "meta_rev_at_epoch": 13963,
        "meta_bstar": 0,
        "meta_mean_motion_dot": 3e-08,
        "meta_mean_motion_ddot": 0,
        "tle_line1": "1 29601U 06052A   25344.95205074  .00000003  00000+0  00000+0 0  9992",
        "tle_line2": "2 29601  54.9709 221.4692 0087770  87.4134 273.6662  2.00573418139630"
      },
      "geometry": {
        "type": "Point",
        "coordinates": [
          -139.4254121917613,
          -1.2305799441316176
        ]
      }
    },
    {
      "type": "Feature",
      "properties": {
        "norad_id": 32260,
        "name": "GPS BIIRM-4 (PRN 15)",
        "group": "gnss",
        "lat": 30.46835972936179,
        "lon": -117.54668089068886,
        "alt_km": 19929.392890016297,
        "timestamp": "2025-12-11T22:43:47.509404+00:00",
        "meta_object_name": "GPS BIIRM-4 (PRN 15)",
        "meta_object_id": "2007-047A",
        "meta_epoch": "2025-12-10T06:15:19.310688",
        "meta_mean_motion": 2.00564571,
        "meta_eccentricity": 0.0164232,
        "meta_inclination": 53.9536,
        "meta_ra_of_asc_node": 87.861,
        "meta_arg_of_pericenter": 85.2178,
        "meta_mean_anomaly": 276.6503,
        "meta_ephemeris_type": 0,
        "meta_classification_type": "U",
        "meta_norad_cat_id": 32260,
        "meta_element_set_no": 999,
        "meta_rev_at_epoch": 13302,
        "meta_bstar": 0,
        "meta_mean_motion_dot": -1.7e-07,
        "meta_mean_motion_ddot": 0,
        "tle_line1": "1 32260U 07047A   25344.26064017 -.00000017  00000+0  00000+0 0  9992",
        "tle_line2": "2 32260  53.9536  87.8610 0164232  85.2178 276.6503  2.00564571133023"
      },
      "geometry": {
        "type": "Point",
        "coordinates": [
          -117.54668089068886,
          30.46835972936179
        ]
      }
    },
    {
      "type": "Feature",
      "properties": {
        "norad_id": 32275,
        "name": "COSMOS 2433 (720)",
        "group": "gnss",
        "lat": -21.398324938138153,
        "lon": 152.42672853215223,
        "alt_km": 19123.643079383935,
        "timestamp": "2025-12-11T22:43:47.509416+00:00",
        "meta_object_name": "COSMOS 2433 (720)",
        "meta_object_id": "2007-052A",
        "meta_epoch": "2025-12-10T06:34:19.673184",
        "meta_mean_motion": 2.13103813,
        "meta_eccentricity": 0.00055546,
        "meta_inclination": 65.6847,
        "meta_ra_of_asc_node": 322.2886,
        "meta_arg_of_pericenter": 252.6006,
        "meta_mean_anomaly": 107.3381,
        "meta_ephemeris_type": 0,
        "meta_classification_type": "U",
        "meta_norad_cat_id": 32275,
        "meta_element_set_no": 999,
        "meta_rev_at_epoch": 14103,
        "meta_bstar": 0,
        "meta_mean_motion_dot": -5e-07,
        "meta_mean_motion_ddot": 0,
        "tle_line1": "1 32275U 07052A   25344.27383881 -.00000050  00000+0  00000+0 0  9995",
        "tle_line2": "2 32275  65.6847 322.2886 0005554 252.6006 107.3381  2.13103813141032"
      },
      "geometry": {
        "type": "Point",
        "coordinates": [
          152.42672853215223,
          -21.398324938138153
        ]
      }
    },
    {
      "type": "Feature",
      "properties": {
        "norad_id": 32276,
        "name": "COSMOS 2432 (719)",
        "group": "gnss",
        "lat": 28.806323386209723,
        "lon": 127.96361287413269,
        "alt_km": 19154.1189580564,
        "timestamp": "2025-12-11T22:43:47.509428+00:00",
        "meta_object_name": "COSMOS 2432 (719)",
        "meta_object_id": "2007-052B",
        "meta_epoch": "2025-12-10T13:56:19.351392",
        "meta_mean_motion": 2.13102999,
        "meta_eccentricity": 0.0011254,
        "meta_inclination": 65.7001,
        "meta_ra_of_asc_node": 322.4023,
        "meta_arg_of_pericenter": 311.5771,
        "meta_mean_anomaly": 228.309,
        "meta_ephemeris_type": 0,
        "meta_classification_type": "U",
        "meta_norad_cat_id": 32276,
        "meta_element_set_no": 999,
        "meta_rev_at_epoch": 14106,
        "meta_bstar": 0,
        "meta_mean_motion_dot": -5e-07,
        "meta_mean_motion_ddot": 0,
        "tle_line1": "1 32276U 07052B   25344.58077953 -.00000050  00000+0  00000+0 0  9990",
        "tle_line2": "2 32276  65.7001 322.4023 0011254 311.5771 228.3090  2.13102999141067"
      },
      "geometry": {
        "type": "Point",
        "coordinates": [
          127.96361287413269,
          28.806323386209723
        ]
      }
    },
    {
      "type": "Feature",
      "properties": {
        "norad_id": 32384,
        "name": "GPS BIIRM-5 (PRN 29)",
        "group": "gnss",
        "lat": -55.187743426755716,
        "lon": -169.85853828358617,
        "alt_km": 20211.19935486826,
        "timestamp": "2025-12-11T22:43:47.509441+00:00",
        "meta_object_name": "GPS BIIRM-5 (PRN 29)",
        "meta_object_id": "2007-062A",
        "meta_epoch": "2025-12-11T07:35:29.001696",
        "meta_mean_motion": 2.00577198,
        "meta_eccentricity": 0.00322342,
        "meta_inclination": 55.1834,
        "meta_ra_of_asc_node": 281.703,
        "meta_arg_of_pericenter": 162.5016,
        "meta_mean_anomaly": 10.7784,
        "meta_ephemeris_type": 0,
        "meta_classification_type": "U",
        "meta_norad_cat_id": 32384,
        "meta_element_set_no": 999,
        "meta_rev_at_epoch": 13174,
        "meta_bstar": 0,
        "meta_mean_motion_dot": -7e-07,
        "meta_mean_motion_ddot": 0,
        "tle_line1": "1 32384U 07062A   25345.31630789 -.00000070  00000+0  00000+0 0  9997",
        "tle_line2": "2 32384  55.1834 281.7030 0032234 162.5016  10.7784  2.00577198131746"
      },
      "geometry": {
        "type": "Point",
        "coordinates": [
          -169.85853828358617,
          -55.187743426755716
        ]
      }
    }
  ]
}